IRIDIUM 7 [-]           
1 24793U 97020B   23280.49322432  .00000919  00000+0  31644-3 0  9996
2 24793  86.3918  76.0337 0002140  83.9280 276.2160 14.34917251383145
IRIDIUM 5 [-]           
1 24795U 97020D   23280.52930394  .00009535  00000+0  96571-3 0  9997
2 24795  86.4002   6.4432 0128673 180.4726 179.6400 14.84768903393397
IRIDIUM 4 [-]           
1 24796U 97020E   23280.52218392  .00000888  00000+0  30000-3 0  9992
2 24796  86.3918  73.3083 0002287  89.2066 270.9393 14.35826609383662
IRIDIUM 914 [-]         
1 24836U 97030A   23280.53294996  .00001149  00000+0  36152-3 0  9998
2 24836  86.3881  83.7191 0004009  94.0422 266.1235 14.39623804518089
IRIDIUM 16 [-]          
1 24841U 97030F   23280.55410571  .00000930  00000+0  30406-3 0  9998
2 24841  86.3980 105.0508 0001061  12.9005 347.2219 14.37516980378098
IRIDIUM 911 [-]         
1 24842U 97030G   23280.60112255  .00001223  00000+0  33744-3 0  9997
2 24842  86.4406 104.3666 0014573   7.0984 353.0422 14.46035085385645
IRIDIUM 17 [-]          
1 24870U 97034B   23280.57208828  .00000767  00000+0  25438-3 0  9993
2 24870  86.3954 134.7124 0000934 138.6612 221.4656 14.36617508374734
IRIDIUM 920 [-]         
1 24871U 97034C   23280.54081412  .00000832  00000+0  25614-3 0  9998
2 24871  86.3932 115.4008 0010512 331.1521  28.9095 14.40331157377491
